GEOSCAN 3 (RS92S3)      
1 64893U 25155T   26162.58779706  .00017301  00000+0  50773-3 0  9990
2 64893  97.4529 132.3999 0005891 178.3474 181.7789 15.35210532 79993
INNOSAT 3 (RS92S0)      
1 64894U 25155U   26162.60812527  .00035570  00000+0  79433-3 0  9995
2 64894  97.4477 133.9717 0005554 164.8683 195.2732 15.43438229 80106
KNACKSAT-2              
1 67683U 98067XZ  26162.00743511  .00045581  00000+0  56748-3 0  9993
2 67683  51.6304 325.5501 0009943 187.9343 172.1494 15.59412992 19311
