OBJECT_NAME,OBJECT_ID,EPOCH,MEAN_MOTION,ECCENTRICITY,INCLINATION,RA_OF_ASC_NODE,ARG_OF_PERICENTER,MEAN_ANOMALY,EPHEMERIS_TYPE,CLASSIFICATION_TYPE,NORAD_CAT_ID,ELEMENT_SET_NO,REV_AT_EPOCH,BSTAR,MEAN_MOTION_DOT,MEAN_MOTION_DDOT
GEOSCAN 3 (RS92S3),2025-155T,2026-06-11T14:06:25.665984,15.35210532,.00058913,97.4529,132.3999,178.3474,181.7789,0,U,64893,999,7999,.50772815E-3,.17301E-3,0
INNOSAT 3 (RS92S0),2025-155U,2026-06-11T14:35:42.023328,15.43438229,.00055548,97.4477,133.9717,164.8683,195.2732,0,U,64894,999,8010,.79432862E-3,.3557E-3,0
KNACKSAT-2,1998-067XZ,2026-06-11T00:10:42.393504,15.59412992,.00099437,51.6304,325.5501,187.9343,172.1494,0,U,67683,999,1931,.5674825E-3,.45581E-3,0
